NIMIQ 4                 
1 33373U 08044A   26169.87870293  .00000000  00000+0  00000+0 0  9991
2 33373   0.0375  51.5715 0002061  36.3791  53.5292  1.00267306 65000
GALAXY 19 (G-19)        
1 33376U 08045A   26169.87566958 -.00000145  00000+0  00000+0 0  9996
2 33376   0.0319 263.5052 0002528 188.9133  32.9336  1.00271188 64925
ASTRA 1M                
1 33436U 08057A   26169.89869936  .00000114  00000+0  00000+0 0  9995
2 33436   0.3019  82.4820 0004807  25.5221 142.0212  1.00272573 45754
EUTELSAT HOTBIRD 13C    
1 33459U 08065A   26169.81365735 -.00000290  00000+0  00000+0 0  9995
2 33459   2.9554  79.1731 0003376   7.8980  62.5927  1.00270363 47363
EXPRESS-AM44            
1 33595U 09007A   26169.89271934 -.00000097  00000+0  00000+0 0  9993
2 33595   3.4687  78.3694 0003810   2.0901 137.0318  1.00271044 52308
NSS-9                   
1 33749U 09008A   26169.78852391  .00000065  00000+0  00000+0 0  9999
2 33749   1.2669  82.6395 0002013 346.1525 305.1571  1.00270746 63533
TELSTAR 11N             
1 34111U 09009A   26169.88748102 -.00000257  00000+0  00000+0 0  9993
2 34111   0.0253  67.7748 0002250  22.5289  98.7391  1.00270104 46268
WGS F2 (USA 204)        
1 34713U 09017A   26169.90626544  .00000062  00000+0  00000+0 0  9991
2 34713   0.0186   9.9852 0000133 234.6545  46.2561  1.00270853 45632
SES-7 (PROTOSTAR 2)     
1 34941U 09027A   26169.81415477 -.00000350  00000+0  00000+0 0  9997
2 34941   0.0423  69.2602 0000425 189.2621  49.8578  1.00259922 62646
MEASAT-3A               
1 35362U 09032A   26169.85530284 -.00000117  00000+0  00000+0 0  9990
2 35362   0.0222   1.0251 0002918  79.3602 294.6215  1.00271787  8047
GOES 14                 
1 35491U 09033A   26169.92281884 -.00000304  00000+0  00000+0 0  9999
2 35491   1.6955  83.0209 0001837  12.3121 284.8605  1.00110377  6606
FM-5                    
1 35493U 09034A   26169.87783626 -.00000207  00000+0  00000+0 0  9999
2 35493   0.0177 295.7663 0000924  16.7662 184.4354  1.00272335 46666
TERRESTAR-1             
1 35496U 09035A   26169.65879770 -.00000065  00000+0  00000+0 0  9997
2 35496   5.1763  48.8007 0002625  31.4792 312.7675  1.00272073 62145
ASIASAT 5               
1 35696U 09042A   26169.98606134  .00000000  00000+0  00000+0 0  9993
2 35696   0.0293  48.1260 0001597  39.2048 275.4322  1.00266387 61728
JCSAT-12 (JCSAT-RA)     
1 35755U 09044A   26169.92108551 -.00000334  00000+0  00000+0 0  9996
2 35755   0.0084  19.8579 0000231 282.5028  68.4218  1.00270453 61627
OPTUS D3                
1 35756U 09044B   26169.64068427 -.00000152  00000+0  00000+0 0  9991
2 35756   0.8729 268.9316 0002742 180.3950 204.3323  1.00270123 61583
NIMIQ 5                 
1 35873U 09050A   26169.88052294 -.00000263  00000+0  00000+0 0  9992
2 35873   0.0071  18.6551 0002763  66.6838  66.0539  1.00269805 61363
AMAZONAS 2              
1 35942U 09054A   26169.88060961 -.00000266  00000+0  00000+0 0  9996
2 35942   1.8209  83.0276 0003141   5.9954  63.1098  1.00272814 61203
COMSATBW-1              
1 35943U 09054B   26169.47959942  .00000017  00000+0  00000+0 0  9991
2 35943   0.0550 162.5729 0002674 293.6151  46.2520  1.00276711 61320
NSS-12                  
1 36032U 09058A   26169.90617877  .00000065  00000+0  00000+0 0  9994
2 36032   0.0295 309.9758 0004897 107.6129 232.7626  1.00270531 60932
THOR 6                  
1 36033U 09058B   26169.89471269 -.00000016  00000+0  00000+0 0  9993
2 36033   0.0229  96.1406 0001615 347.8086 144.4299  1.00271429 61023
INTELSAT 14 (IS-14)     
1 36097U 09064A   26169.81469735 -.00000280  00000+0  00000+0 0  9990
2 36097   0.0112 313.3595 0002312 132.8489  69.1362  1.00271936 60623
EUTELSAT 36B            
1 36101U 09065A   26169.90487876  .00000106  00000+0  00000+0 0  9999
2 36101   0.4962  81.1216 0005479   4.6695 197.6069  1.00268701 60726
INTELSAT 15 (IS-15)     
1 36106U 09067A   26169.91172546 -.00000191  00000+0  00000+0 0  9997
2 36106   0.0163 339.7465 0002125 108.2856 232.4767  1.00272232 41246
WGS F3 (USA 211)        
1 36108U 09068A   26169.65524434  .00000058  00000+0  00000+0 0  9999
2 36108   0.3242  85.6919 0000257 251.5107  35.5777  1.00270012 46607
DIRECTV 12              
1 36131U 09075A   26169.66070437 -.00000110  00000+0  00000+0 0  9993
2 36131   0.0434 170.9001 0000385 299.0990 292.0273  1.00272181 46567
BEIDOU-2 G1             
1 36287U 10001A   26169.92273218 -.00000288  00000+0  00000+0 0  9993
2 36287   4.2982  60.4049 0002243 296.0281  23.3653  1.00269667 60189
SDO                     
1 36395U 10005A   26168.41002763 -.00000096  00000+0  00000+0 0  9992
2 36395  34.6527  86.3378 0001734  44.0102 180.8312  1.00269958 60061
INTELSAT 16 (IS-16)     
1 36397U 10006A   26169.87982959 -.00000251  00000+0  00000+0 0  9993
2 36397   0.0102 330.0634 0001936 131.0131  46.5663  1.00272338 59674
EWS-G2 (GOES 15)        
1 36411U 10008A   26169.90747877  .00000013  00000+0  00000+0 0  9999
2 36411   1.2832  82.8190 0004852  42.1613 172.5356  1.00266396 59654
ECHOSTAR 14             
1 36499U 10010A   26169.87124957 -.00000006  00000+0  00000+0 0  9995
2 36499   0.0495  85.0307 0002372  15.9526   0.8784  1.00269955 46572
SES-1                   
1 36516U 10016A   26169.87471625 -.00000121  00000+0  00000+0 0  9996
2 36516   0.0312 298.0328 0002619 145.6021  37.3655  1.00270789 59050
