OBJECT_NAME,OBJECT_ID,EPOCH,MEAN_MOTION,ECCENTRICITY,INCLINATION,RA_OF_ASC_NODE,ARG_OF_PERICENTER,MEAN_ANOMALY,EPHEMERIS_TYPE,CLASSIFICATION_TYPE,NORAD_CAT_ID,ELEMENT_SET_NO,REV_AT_EPOCH,BSTAR,MEAN_MOTION_DOT,MEAN_MOTION_DDOT
NIMIQ 4,2008-044A,2026-06-18T21:05:19.933152,1.00267306,.00020616,0.0375,51.5715,36.3791,53.5292,0,U,33373,999,6500,0,0,0
GALAXY 19 (G-19),2008-045A,2026-06-18T21:00:57.851712,1.00271188,.00025282,0.0319,263.5052,188.9133,32.9336,0,U,33376,999,6492,0,-.145E-5,0
ASTRA 1M,2008-057A,2026-06-18T21:34:07.624704,1.00272573,.00048078,0.3019,82.4820,25.5221,142.0212,0,U,33436,999,4575,0,.114E-5,0
EUTELSAT HOTBIRD 13C,2008-065A,2026-06-18T19:31:39.995040,1.00270363,.00033763,2.9554,79.1731,7.8980,62.5927,0,U,33459,999,4736,0,-.29E-5,0
EXPRESS-AM44,2009-007A,2026-06-18T21:25:30.950976,1.00271044,.00038108,3.4687,78.3694,2.0901,137.0318,0,U,33595,999,5230,0,-.97E-6,0
NSS-9,2009-008A,2026-06-18T18:55:28.465824,1.00270746,.00020131,1.2669,82.6395,346.1525,305.1571,0,U,33749,999,6353,0,.65E-6,0
TELSTAR 11N,2009-009A,2026-06-18T21:17:58.360128,1.00270104,.00022501,0.0253,67.7748,22.5289,98.7391,0,U,34111,999,4626,0,-.257E-5,0
WGS F2 (USA 204),2009-017A,2026-06-18T21:45:01.334016,1.00270853,.0000133,0.0186,9.9852,234.6545,46.2561,0,U,34713,999,4563,0,.62E-6,0
SES-7 (PROTOSTAR 2),2009-027A,2026-06-18T19:32:22.972128,1.00259922,.00004256,0.0423,69.2602,189.2621,49.8578,0,U,34941,999,6264,0,-.35E-5,0
MEASAT-3A,2009-032A,2026-06-18T20:31:38.165376,1.00271787,.00029185,0.0222,1.0251,79.3602,294.6215,0,U,35362,999,804,0,-.117E-5,0
GOES 14,2009-033A,2026-06-18T22:08:51.547776,1.00110377,.00018373,1.6955,83.0209,12.3121,284.8605,0,U,35491,999,660,0,-.304E-5,0
FM-5,2009-034A,2026-06-18T21:04:05.052864,1.00272335,.00009243,0.0177,295.7663,16.7662,184.4354,0,U,35493,999,4666,0,-.207E-5,0
TERRESTAR-1,2009-035A,2026-06-18T15:48:40.121280,1.00272073,.00026258,5.1763,48.8007,31.4792,312.7675,0,U,35496,999,6214,0,-.65E-6,0
ASIASAT 5,2009-042A,2026-06-18T23:39:55.699776,1.00266387,.00015974,0.0293,48.1260,39.2048,275.4322,0,U,35696,999,6172,0,0,0
JCSAT-12 (JCSAT-RA),2009-044A,2026-06-18T22:06:21.788064,1.00270453,.00002316,0.0084,19.8579,282.5028,68.4218,0,U,35755,999,6162,0,-.334E-5,0
OPTUS D3,2009-044B,2026-06-18T15:22:35.120928,1.00270123,.00027427,0.8729,268.9316,180.3950,204.3323,0,U,35756,999,6158,0,-.152E-5,0
NIMIQ 5,2009-050A,2026-06-18T21:07:57.182016,1.00269805,.00027635,0.0071,18.6551,66.6838,66.0539,0,U,35873,999,6136,0,-.263E-5,0
AMAZONAS 2,2009-054A,2026-06-18T21:08:04.670304,1.00272814,.00031419,1.8209,83.0276,5.9954,63.1098,0,U,35942,999,6120,0,-.266E-5,0
COMSATBW-1,2009-054B,2026-06-18T11:30:37.389888,1.00276711,.0002674,0.0550,162.5729,293.6151,46.2520,0,U,35943,999,6132,0,.17E-6,0
NSS-12,2009-058A,2026-06-18T21:44:53.845728,1.00270531,.00048978,0.0295,309.9758,107.6129,232.7626,0,U,36032,999,6093,0,.65E-6,0
THOR 6,2009-058B,2026-06-18T21:28:23.176416,1.00271429,.00016155,0.0229,96.1406,347.8086,144.4299,0,U,36033,999,6102,0,-.16E-6,0
INTELSAT 14 (IS-14),2009-064A,2026-06-18T19:33:09.851040,1.00271936,.00023123,0.0112,313.3595,132.8489,69.1362,0,U,36097,999,6062,0,-.28E-5,0
EUTELSAT 36B,2009-065A,2026-06-18T21:43:01.524864,1.00268701,.00054799,0.4962,81.1216,4.6695,197.6069,0,U,36101,999,6072,0,.106E-5,0
INTELSAT 15 (IS-15),2009-067A,2026-06-18T21:52:53.079744,1.00272232,.00021259,0.0163,339.7465,108.2856,232.4767,0,U,36106,999,4124,0,-.191E-5,0
WGS F3 (USA 211),2009-068A,2026-06-18T15:43:33.110976,1.00270012,.00002578,0.3242,85.6919,251.5107,35.5777,0,U,36108,999,4660,0,.58E-6,0
DIRECTV 12,2009-075A,2026-06-18T15:51:24.857568,1.00272181,.00003852,0.0434,170.9001,299.0990,292.0273,0,U,36131,999,4656,0,-.11E-5,0
BEIDOU-2 G1,2010-001A,2026-06-18T22:08:44.060352,1.00269667,.00022434,4.2982,60.4049,296.0281,23.3653,0,U,36287,999,6018,0,-.288E-5,0
SDO,2010-005A,2026-06-17T09:50:26.387232,1.00269958,.00017341,34.6527,86.3378,44.0102,180.8312,0,U,36395,999,6006,0,-.96E-6,0
INTELSAT 16 (IS-16),2010-006A,2026-06-18T21:06:57.276576,1.00272338,.00019368,0.0102,330.0634,131.0131,46.5663,0,U,36397,999,5967,0,-.251E-5,0
EWS-G2 (GOES 15),2010-008A,2026-06-18T21:46:46.165728,1.00266396,.00048524,1.2832,82.8190,42.1613,172.5356,0,U,36411,999,5965,0,.13E-6,0
ECHOSTAR 14,2010-010A,2026-06-18T20:54:35.962848,1.00269955,.00023721,0.0495,85.0307,15.9526,0.8784,0,U,36499,999,4657,0,-.6E-7,0
SES-1,2010-016A,2026-06-18T20:59:35.484000,1.00270789,.00026193,0.0312,298.0328,145.6021,37.3655,0,U,36516,999,5905,0,-.121E-5,0
